{"type": "FeatureCollection", "features": [ {"type": "Feature", "properties": {"norad_id": 57401, "name": "TIANMU-1 09", "group": "weather", "lat": -57.87188553205048, "lon": -160.5357785542531, "alt_km": 492.69299832978504, "timestamp": "2025-12-07T22:37:42.726067+00:00", "meta": {"OBJECT_NAME": "TIANMU-1 09", "OBJECT_ID": "2023-101C", "EPOCH": "2025-12-07T05:52:15.149856", "MEAN_MOTION": 15.27962965, "ECCENTRICITY": 0.00068022, "INCLINATION": 97.2823, "RA_OF_ASC_NODE": 30.5315, "ARG_OF_PERICENTER": 98.7343, "MEAN_ANOMALY": 261.4668, "EPHEMERIS_TYPE": 0, "CLASSIFICATION_TYPE": "U", "NORAD_CAT_ID": 57401, "ELEMENT_SET_NO": 999, "REV_AT_EPOCH": 13231, "BSTAR": 0.00040270883, "MEAN_MOTION_DOT": 0.00010927, "MEAN_MOTION_DDOT": 0}, "tle": {"line1": "1 57401U 23101C   25341.24461979  .00010927  00000+0  40271-3 0  9996", "line2": "2 57401  97.2823  30.5315 0006802  98.7343 261.4668 15.27962965132312"}}, "geometry": {"type": "Point", "coordinates": [-160.5357785542531, -57.87188553205048]}}, {"type": "Feature", "properties": {"norad_id": 57402, "name": "TIANMU-1 10", "group": "weather", "lat": 49.884092216026474, "lon": 23.318767015517295, "alt_km": 473.3313402408312, "timestamp": "2025-12-07T22:37:42.726078+00:00", "meta": {"OBJECT_NAME": "TIANMU-1 10", "OBJECT_ID": "2023-101D", "EPOCH": "2025-12-07T06:41:28.745952", "MEAN_MOTION": 15.27955208, "ECCENTRICITY": 0.00085707, "INCLINATION": 97.2904, "RA_OF_ASC_NODE": 31.4089, "ARG_OF_PERICENTER": 99.2803, "MEAN_ANOMALY": 260.9406, "EPHEMERIS_TYPE": 0, "CLASSIFICATION_TYPE": "U", "NORAD_CAT_ID": 57402, "ELEMENT_SET_NO": 999, "REV_AT_EPOCH": 13231, "BSTAR": 0.00042923581, "MEAN_MOTION_DOT": 0.00011655, "MEAN_MOTION_DDOT": 0}, "tle": {"line1": "1 57402U 23101D   25341.27880493  .00011655  00000+0  42924-3 0  9992", "line2": "2 57402  97.2904  31.4089 0008570  99.2803 260.9406 15.27955208132318"}}, "geometry": {"type": "Point", "coordinates": [23.318767015517295, 49.884092216026474]}}, {"type": "Feature", "properties": {"norad_id": 57490, "name": "FENGYUN 3F", "group": "weather", "lat": 13.978806223917898, "lon": 48.12668284542853, "alt_km": 826.5252320535783, "timestamp": "2025-12-07T22:37:42.726088+00:00", "meta": {"OBJECT_NAME": "FENGYUN 3F", "OBJECT_ID": "2023-111A", "EPOCH": "2025-12-07T05:38:59.590752", "MEAN_MOTION": 14.19891454, "ECCENTRICITY": 6.661e-05, "INCLINATION": 98.7092, "RA_OF_ASC_NODE": 49.6175, "ARG_OF_PERICENTER": 91.4991, "MEAN_ANOMALY": 268.6262, "EPHEMERIS_TYPE": 0, "CLASSIFICATION_TYPE": "U", "NORAD_CAT_ID": 57490, "ELEMENT_SET_NO": 999, "REV_AT_EPOCH": 12162, "BSTAR": 0.00011935179, "MEAN_MOTION_DOT": 2.1e-06, "MEAN_MOTION_DDOT": 0}, "tle": {"line1": "1 57490U 23111A   25341.23541193  .00000210  00000+0  11935-3 0  9990", "line2": "2 57490  98.7092  49.6175 0000666  91.4991 268.6262 14.19891454121625"}}, "geometry": {"type": "Point", "coordinates": [48.12668284542853, 13.978806223917898]}}, {"type": "Feature", "properties": {"norad_id": 58584, "name": "ARKTIKA-M 2", "group": "weather", "lat": 51.98140952235945, "lon": -144.3394745304694, "alt_km": 30209.61254809563, "timestamp": "2025-12-07T22:37:42.726100+00:00", "meta": {"OBJECT_NAME": "ARKTIKA-M 2", "OBJECT_ID": "2023-198A", "EPOCH": "2025-12-06T20:18:59.579424", "MEAN_MOTION": 2.00604738, "ECCENTRICITY": 0.68644701, "INCLINATION": 63.2244, "RA_OF_ASC_NODE": 175.5329, "ARG_OF_PERICENTER": 268.127, "MEAN_ANOMALY": 18.8311, "EPHEMERIS_TYPE": 0, "CLASSIFICATION_TYPE": "U", "NORAD_CAT_ID": 58584, "ELEMENT_SET_NO": 999, "REV_AT_EPOCH": 1446, "BSTAR": 0, "MEAN_MOTION_DOT": 1.78e-06, "MEAN_MOTION_DDOT": 0}, "tle": {"line1": "1 58584U 23198A   25340.84652291  .00000178  00000+0  00000+0 0  9998", "line2": "2 58584  63.2244 175.5329 6864470 268.1270  18.8311  2.00604738 14463"}}, "geometry": {"type": "Point", "coordinates": [-144.3394745304694, 51.98140952235945]}}, {"type": "Feature", "properties": {"norad_id": 58645, "name": "TIANMU-1 11", "group": "weather", "lat": -69.36337186020528, "lon": 21.72489249895514, "alt_km": 495.1537174722789, "timestamp": "2025-12-07T22:37:42.726114+00:00", "meta": {"OBJECT_NAME": "TIANMU-1 11", "OBJECT_ID": "2023-205A", "EPOCH": "2025-12-07T07:11:05.016768", "MEAN_MOTION": 15.24500632, "ECCENTRICITY": 0.00084181, "INCLINATION": 97.3604, "RA_OF_ASC_NODE": 1.0185, "ARG_OF_PERICENTER": 332.2497, "MEAN_ANOMALY": 27.829, "EPHEMERIS_TYPE": 0, "CLASSIFICATION_TYPE": "U", "NORAD_CAT_ID": 58645, "ELEMENT_SET_NO": 999, "REV_AT_EPOCH": 10826, "BSTAR": 0.00037953704, "MEAN_MOTION_DOT": 9.272e-05, "MEAN_MOTION_DDOT": 0}, "tle": {"line1": "1 58645U 23205A   25341.29936362  .00009272  00000+0  37954-3 0  9995", "line2": "2 58645  97.3604   1.0185 0008418 332.2497  27.8290 15.24500632108268"}}, "geometry": {"type": "Point", "coordinates": [21.72489249895514, -69.36337186020528]}}, {"type": "Feature", "properties": {"norad_id": 58646, "name": "TIANMU-1 12", "group": "weather", "lat": 35.87566084614415, "lon": -173.1788773089632, "alt_km": 494.3559960636039, "timestamp": "2025-12-07T22:37:42.726125+00:00", "meta": {"OBJECT_NAME": "TIANMU-1 12", "OBJECT_ID": "2023-205B", "EPOCH": "2025-12-07T06:14:46.523616", "MEAN_MOTION": 15.24415907, "ECCENTRICITY": 0.00062541, "INCLINATION": 97.3591, "RA_OF_ASC_NODE": 0.7874, "ARG_OF_PERICENTER": 316.7947, "MEAN_ANOMALY": 43.28, "EPHEMERIS_TYPE": 0, "CLASSIFICATION_TYPE": "U", "NORAD_CAT_ID": 58646, "ELEMENT_SET_NO": 999, "REV_AT_EPOCH": 10824, "BSTAR": 0.00040919586, "MEAN_MOTION_DOT": 9.973e-05, "MEAN_MOTION_DDOT": 0}, "tle": {"line1": "1 58646U 23205B   25341.26026069  .00009973  00000+0  40920-3 0  9992", "line2": "2 58646  97.3591   0.7874 0006254 316.7947  43.2800 15.24415907108245"}}, "geometry": {"type": "Point", "coordinates": [-173.1788773089632, 35.87566084614415]}}, {"type": "Feature", "properties": {"norad_id": 58647, "name": "TIANMU-1 13", "group": "weather", "lat": -40.702044546739046, "lon": 8.04204112189225, "alt_km": 495.40776613484377, "timestamp": "2025-12-07T22:37:42.726138+00:00", "meta": {"OBJECT_NAME": "TIANMU-1 13", "OBJECT_ID": "2023-205C", "EPOCH": "2025-12-07T05:28:45.574464", "MEAN_MOTION": 15.24421488, "ECCENTRICITY": 0.00061524, "INCLINATION": 97.3619, "RA_OF_ASC_NODE": 0.9546, "ARG_OF_PERICENTER": 292.2775, "MEAN_ANOMALY": 67.781, "EPHEMERIS_TYPE": 0, "CLASSIFICATION_TYPE": "U", "NORAD_CAT_ID": 58647, "ELEMENT_SET_NO": 999, "REV_AT_EPOCH": 10823, "BSTAR": 0.0003954949, "MEAN_MOTION_DOT": 9.638e-05, "MEAN_MOTION_DDOT": 0}, "tle": {"line1": "1 58647U 23205C   25341.22830526  .00009638  00000+0  39549-3 0  9993", "line2": "2 58647  97.3619   0.9546 0006152 292.2775  67.7810 15.24421488108231"}}, "geometry": {"type": "Point", "coordinates": [8.04204112189225, -40.702044546739046]}}, {"type": "Feature", "properties": {"norad_id": 58648, "name": "TIANMU-1 14", "group": "weather", "lat": 49.71026053826781, "lon": -7.754314208988143, "alt_km": 490.1648134817797, "timestamp": "2025-12-07T22:37:42.726149+00:00", "meta": {"OBJECT_NAME": "TIANMU-1 14", "OBJECT_ID": "2023-205D", "EPOCH": "2025-12-07T05:04:46.121088", "MEAN_MOTION": 15.24405084, "ECCENTRICITY": 0.00070398, "INCLINATION": 97.3551, "RA_OF_ASC_NODE": 0.2922, "ARG_OF_PERICENTER": 297.086, "MEAN_ANOMALY": 62.9659, "EPHEMERIS_TYPE": 0, "CLASSIFICATION_TYPE": "U", "NORAD_CAT_ID": 58648, "ELEMENT_SET_NO": 999, "REV_AT_EPOCH": 10823, "BSTAR": 0.00040780986, "MEAN_MOTION_DOT": 9.938e-05, "MEAN_MOTION_DDOT": 0}, "tle": {"line1": "1 58648U 23205D   25341.21164492  .00009938  00000+0  40781-3 0  9998", "line2": "2 58648  97.3551   0.2922 0007039 297.0860  62.9659 15.24405084108233"}}, "geometry": {"type": "Point", "coordinates": [-7.754314208988143, 49.71026053826781]}}, {"type": "Feature", "properties": {"norad_id": 58660, "name": "TIANMU-1 19", "group": "weather", "lat": -66.78412448499586, "lon": -104.74687755595014, "alt_km": 487.4444401043929, "timestamp": "2025-12-07T22:37:42.726159+00:00", "meta": {"OBJECT_NAME": "TIANMU-1 19", "OBJECT_ID": "2023-208A", "EPOCH": "2025-12-07T05:49:35.120640", "MEAN_MOTION": 15.27700204, "ECCENTRICITY": 0.00040296, "INCLINATION": 97.4397, "RA_OF_ASC_NODE": 92.2918, "ARG_OF_PERICENTER": 277.8097, "MEAN_ANOMALY": 82.2684, "EPHEMERIS_TYPE": 0, "CLASSIFICATION_TYPE": "U", "NORAD_CAT_ID": 58660, "ELEMENT_SET_NO": 999, "REV_AT_EPOCH": 10798, "BSTAR": 0.00053114985, "MEAN_MOTION_DOT": 0.00014319, "MEAN_MOTION_DDOT": 0}, "tle": {"line1": "1 58660U 23208A   25341.24276760  .00014319  00000+0  53115-3 0  9994", "line2": "2 58660  97.4397  92.2918 0004029 277.8097  82.2684 15.27700204107985"}}, "geometry": {"type": "Point", "coordinates": [-104.74687755595014, -66.78412448499586]}}, {"type": "Feature", "properties": {"norad_id": 58661, "name": "TIANMU-1 20", "group": "weather", "lat": -57.65483231532742, "lon": 105.33093876680103, "alt_km": 481.99670071209493, "timestamp": "2025-12-07T22:37:42.726169+00:00", "meta": {"OBJECT_NAME": "TIANMU-1 20", "OBJECT_ID": "2023-208B", "EPOCH": "2025-12-07T05:36:18.278496", "MEAN_MOTION": 15.28891248, "ECCENTRICITY": 0.00063447, "INCLINATION": 97.4333, "RA_OF_ASC_NODE": 92.7248, "ARG_OF_PERICENTER": 289.1798, "MEAN_ANOMALY": 70.8755, "EPHEMERIS_TYPE": 0, "CLASSIFICATION_TYPE": "U", "NORAD_CAT_ID": 58661, "ELEMENT_SET_NO": 999, "REV_AT_EPOCH": 10805, "BSTAR": 0.0005035053, "MEAN_MOTION_DOT": 0.00014076, "MEAN_MOTION_DDOT": 0}, "tle": {"line1": "1 58661U 23208B   25341.23354489  .00014076  00000+0  50351-3 0  9998", "line2": "2 58661  97.4333  92.7248 0006344 289.1798  70.8755 15.28891248108054"}}, "geometry": {"type": "Point", "coordinates": [105.33093876680103, -57.65483231532742]}}]}